start=new Date('2022-10-20T00:00:00.000Z').valueOf();
sats=[{"SITE":"AFETR","RCS_SIZE":"LARGE","TLE_LINE1":"1 47640U 21012W   22292.62769683  .00001659  00000-0  13025-3 0  9996","MEAN_ELEMENT_THEORY":"SGP4","RA_OF_ASC_NODE":"225.0045","NORAD_CAT_ID":"47640","CLASSIFICATION_TYPE":"U","COUNTRY_CODE":"US","ARG_OF_PERICENTER":"77.9384","BSTAR":"0.00013025000000","GP_ID":"215620592","REV_AT_EPOCH":"9353","SEMIMAJOR_AXIS":"6925.366","DECAY_DATE":null,"INCLINATION":"53.0554","EPOCH":"2022-10-19T15:03:53.006112","EPHEMERIS_TYPE":"0","ECCENTRICITY":"0.00014140","OBJECT_ID":"2021-012W","APOAPSIS":"548.210","OBJECT_NAME":"STARLINK-2018","MEAN_ANOMALY":"282.1764","MEAN_MOTION_DOT":"0.00001659","MEAN_MOTION_DDOT":"0.0000000000000","PERIAPSIS":"546.252","PERIOD":"95.592","TLE_LINE2":"2 47640  53.0554 225.0045 0001414  77.9384 282.1764 15.06394374 93533","ELEMENT_SET_NO":"999","LAUNCH_DATE":"2021-02-16","OBJECT_TYPE":"PAYLOAD","REF_FRAME":"TEME","FILE":"3623738","CENTER_NAME":"EARTH","MEAN_MOTION":"15.06394374","TIME_SYSTEM":"UTC"},{"MEAN_MOTION_DOT":"-0.00000546","MEAN_ANOMALY":"249.5512","OBJECT_NAME":"STARLINK-2019","OBJECT_ID":"2021-012X","APOAPSIS":"548.032","TLE_LINE2":"2 47641  53.0528 129.9642 0001161 110.5601 249.5512 15.06395187 94841","PERIAPSIS":"546.424","PERIOD":"95.592","MEAN_MOTION_DDOT":"0.0000000000000","CENTER_NAME":"EARTH","FILE":"3623738","OBJECT_TYPE":"PAYLOAD","REF_FRAME":"TEME","LAUNCH_DATE":"2021-02-16","ELEMENT_SET_NO":"999","TIME_SYSTEM":"UTC","MEAN_MOTION":"15.06395187","RA_OF_ASC_NODE":"129.9642","MEAN_ELEMENT_THEORY":"SGP4","TLE_LINE1":"1 47641U 21012X   22292.63829303 -.00000546  00000-0 -17791-4 0  9995","RCS_SIZE":"LARGE","SITE":"AFETR","BSTAR":"-0.00001779100000","GP_ID":"215620844","COUNTRY_CODE":"US","ARG_OF_PERICENTER":"110.5601","NORAD_CAT_ID":"47641","CLASSIFICATION_TYPE":"U","INCLINATION":"53.0528","DECAY_DATE":null,"SEMIMAJOR_AXIS":"6925.363","REV_AT_EPOCH":"9484","EPHEMERIS_TYPE":"0","ECCENTRICITY":"0.00011610","EPOCH":"2022-10-19T15:19:08.517792"},{"TLE_LINE1":"1 47642U 21012Y   22292.16927706 -.00000669  00000-0 -26033-4 0  9995","RA_OF_ASC_NODE":"222.0510","MEAN_ELEMENT_THEORY":"SGP4","RCS_SIZE":"LARGE","SITE":"AFETR","BSTAR":"-0.00002603300000","GP_ID":"215533256","ARG_OF_PERICENTER":"88.6547","COUNTRY_CODE":"US","NORAD_CAT_ID":"47642","CLASSIFICATION_TYPE":"U","SEMIMAJOR_AXIS":"6925.405","DECAY_DATE":null,"REV_AT_EPOCH":"9301","INCLINATION":"53.0559","EPHEMERIS_TYPE":"0","ECCENTRICITY":"0.00014540","EPOCH":"2022-10-19T04:03:45.537984","MEAN_MOTION_DOT":"-0.00000669","OBJECT_ID":"2021-012Y","APOAPSIS":"548.277","MEAN_ANOMALY":"271.4609","OBJECT_NAME":"STARLINK-2020","PERIOD":"95.593","PERIAPSIS":"546.263","TLE_LINE2":"2 47642  53.0559 222.0510 0001454  88.6547 271.4609 15.06381580 93015","MEAN_MOTION_DDOT":"0.0000000000000","FILE":"3621818","REF_FRAME":"TEME","OBJECT_TYPE":"PAYLOAD","CENTER_NAME":"EARTH","ELEMENT_SET_NO":"999","LAUNCH_DATE":"2021-02-16","MEAN_MOTION":"15.06381580","TIME_SYSTEM":"UTC"},{"FILE":"3623738","OBJECT_TYPE":"PAYLOAD","REF_FRAME":"TEME","CENTER_NAME":"EARTH","ELEMENT_SET_NO":"999","LAUNCH_DATE":"2021-02-16","MEAN_MOTION":"15.06401910","TIME_SYSTEM":"UTC","MEAN_MOTION_DOT":"0.00001123","OBJECT_ID":"2021-012Z","APOAPSIS":"548.129","MEAN_ANOMALY":"251.7412","OBJECT_NAME":"STARLINK-2022","PERIAPSIS":"546.286","PERIOD":"95.592","TLE_LINE2":"2 47643  53.0536 203.7313 0001331 108.3721 251.7412 15.06401910 93851","MEAN_MOTION_DDOT":"0.0000000000000","SEMIMAJOR_AXIS":"6925.343","DECAY_DATE":null,"REV_AT_EPOCH":"9385","INCLINATION":"53.0536","EPHEMERIS_TYPE":"0","ECCENTRICITY":"0.00013310","EPOCH":"2022-10-19T21:55:13.947168","TLE_LINE1":"1 47643U 21012Z   22292.91335587  .00001123  00000-0  94292-4 0  9995","MEAN_ELEMENT_THEORY":"SGP4","RA_OF_ASC_NODE":"203.7313","RCS_SIZE":"LARGE","SITE":"AFETR","GP_ID":"215619843","BSTAR":"0.00009429200000","COUNTRY_CODE":"US","ARG_OF_PERICENTER":"108.3721","NORAD_CAT_ID":"47643","CLASSIFICATION_TYPE":"U"},{"GP_ID":"215585629","BSTAR":"0.00004669700000","ARG_OF_PERICENTER":"68.0262","COUNTRY_CODE":"US","CLASSIFICATION_TYPE":"U","NORAD_CAT_ID":"47644","RA_OF_ASC_NODE":"225.7587","MEAN_ELEMENT_THEORY":"SGP4","TLE_LINE1":"1 47644U 21012AA  22292.46183545  .00000414  00000-0  46697-4 0  9999","RCS_SIZE":"LARGE","SITE":"AFETR","ECCENTRICITY":"0.00015390","EPHEMERIS_TYPE":"0","EPOCH":"2022-10-19T11:05:02.582880","INCLINATION":"53.0542","SEMIMAJOR_AXIS":"6925.406","DECAY_DATE":null,"REV_AT_EPOCH":"9299","TLE_LINE2":"2 47644  53.0542 225.7587 0001539  68.0262 292.0890 15.06381284 92991","PERIAPSIS":"546.205","PERIOD":"95.593","MEAN_MOTION_DDOT":"0.0000000000000","MEAN_MOTION_DOT":"0.00000414","MEAN_ANOMALY":"292.0890","OBJECT_NAME":"STARLINK-2026","APOAPSIS":"548.337","OBJECT_ID":"2021-012AA","TIME_SYSTEM":"UTC","MEAN_MOTION":"15.06381284","CENTER_NAME":"EARTH","FILE":"3623142","REF_FRAME":"TEME","OBJECT_TYPE":"PAYLOAD","LAUNCH_DATE":"2021-02-16","ELEMENT_SET_NO":"999"},{"EPHEMERIS_TYPE":"0","ECCENTRICITY":"0.00015340","EPOCH":"2022-10-19T03:37:54.728832","DECAY_DATE":null,"SEMIMAJOR_AXIS":"6925.379","REV_AT_EPOCH":"9385","INCLINATION":"53.0567","GP_ID":"215580809","BSTAR":"0.00001095700000","COUNTRY_CODE":"US","ARG_OF_PERICENTER":"100.3828","NORAD_CAT_ID":"47645","CLASSIFICATION_TYPE":"U","TLE_LINE1":"1 47645U 21012AB  22292.15132788 -.00000118  00000-0  10957-4 0  9991","RA_OF_ASC_NODE":"197.3933","MEAN_ELEMENT_THEORY":"SGP4","RCS_SIZE":"LARGE","SITE":"AFETR","MEAN_MOTION":"15.06390173","TIME_SYSTEM":"UTC","FILE":"3623062","REF_FRAME":"TEME","OBJECT_TYPE":"PAYLOAD","CENTER_NAME":"EARTH","ELEMENT_SET_NO":"999","LAUNCH_DATE":"2021-02-16","PERIAPSIS":"546.181","PERIOD":"95.593","TLE_LINE2":"2 47645  53.0567 197.3933 0001534 100.3828 259.7334 15.06390173 93857","MEAN_MOTION_DDOT":"0.0000000000000","MEAN_MOTION_DOT":"-0.00000118","OBJECT_ID":"2021-012AB","APOAPSIS":"548.306","MEAN_ANOMALY":"259.7334","OBJECT_NAME":"STARLINK-2027"},{"TIME_SYSTEM":"UTC","MEAN_MOTION":"15.06402962","LAUNCH_DATE":"2021-02-16","ELEMENT_SET_NO":"999","CENTER_NAME":"EARTH","FILE":"3623738","REF_FRAME":"TEME","OBJECT_TYPE":"PAYLOAD","MEAN_MOTION_DDOT":"0.0000000000000","TLE_LINE2":"2 47646  53.0538 159.7722 0001460 102.9456 257.1696 15.06402962 94435","PERIAPSIS":"546.193","PERIOD":"95.592","MEAN_ANOMALY":"257.1696","OBJECT_NAME":"STARLINK-2028","OBJECT_ID":"2021-012AC","APOAPSIS":"548.216","MEAN_MOTION_DOT":"-0.00000397","ECCENTRICITY":"0.00014600","EPHEMERIS_TYPE":"0","EPOCH":"2022-10-19T17:38:31.605792","INCLINATION":"53.0538","SEMIMAJOR_AXIS":"6925.339","DECAY_DATE":null,"REV_AT_EPOCH":"9443","COUNTRY_CODE":"US","ARG_OF_PERICENTER":"102.9456","NORAD_CAT_ID":"47646","CLASSIFICATION_TYPE":"U","GP_ID":"215621091","BSTAR":"-0.00000775290000","RCS_SIZE":"LARGE","SITE":"AFETR","MEAN_ELEMENT_THEORY":"SGP4","RA_OF_ASC_NODE":"159.7722","TLE_LINE1":"1 47646U 21012AC  22292.73508803 -.00000397  00000-0 -77529-5 0  9990"},{"RA_OF_ASC_NODE":"225.4114","MEAN_ELEMENT_THEORY":"SGP4","TLE_LINE1":"1 47647U 21012AD  22292.53923960  .00004571  00000-0  32559-3 0  9992","RCS_SIZE":"LARGE","SITE":"AFETR","GP_ID":"215585205","BSTAR":"0.00032559000000","ARG_OF_PERICENTER":"74.3177","COUNTRY_CODE":"US","NORAD_CAT_ID":"47647","CLASSIFICATION_TYPE":"U","INCLINATION":"53.0526","SEMIMAJOR_AXIS":"6925.348","DECAY_DATE":null,"REV_AT_EPOCH":"9300","EPHEMERIS_TYPE":"0","ECCENTRICITY":"0.00013920","EPOCH":"2022-10-19T12:56:30.301440","MEAN_MOTION_DOT":"0.00004571","MEAN_ANOMALY":"285.7966","OBJECT_NAME":"STARLINK-2030","APOAPSIS":"548.177","OBJECT_ID":"2021-012AD","TLE_LINE2":"2 47647  53.0526 225.4114 0001392  74.3177 285.7966 15.06400273 93007","PERIAPSIS":"546.249","PERIOD":"95.592","MEAN_MOTION_DDOT":"0.0000000000000","CENTER_NAME":"EARTH","FILE":"3623153","REF_FRAME":"TEME","OBJECT_TYPE":"PAYLOAD","LAUNCH_DATE":"2021-02-16","ELEMENT_SET_NO":"999","TIME_SYSTEM":"UTC","MEAN_MOTION":"15.06400273"},{"OBJECT_ID":"2021-012AE","APOAPSIS":"548.274","OBJECT_NAME":"STARLINK-2031","MEAN_ANOMALY":"280.9613","MEAN_MOTION_DOT":"0.00012502","MEAN_MOTION_DDOT":"0.0000000000000","PERIOD":"95.592","PERIAPSIS":"546.094","TLE_LINE2":"2 47648  53.0542 203.6669 0001574  79.1553 280.9613 15.06409761 93863","ELEMENT_SET_NO":"999","LAUNCH_DATE":"2021-02-16","REF_FRAME":"TEME","OBJECT_TYPE":"PAYLOAD","FILE":"3623738","CENTER_NAME":"EARTH","MEAN_MOTION":"15.06409761","TIME_SYSTEM":"UTC","SITE":"AFETR","RCS_SIZE":"MEDIUM","TLE_LINE1":"1 47648U 21012AE  22292.92811366  .00012502  00000-0  85645-3 0  9999","MEAN_ELEMENT_THEORY":"SGP4","RA_OF_ASC_NODE":"203.6669","CLASSIFICATION_TYPE":"U","NORAD_CAT_ID":"47648","ARG_OF_PERICENTER":"79.1553","COUNTRY_CODE":"US","BSTAR":"0.00085645000000","GP_ID":"215620593","REV_AT_EPOCH":"9386","DECAY_DATE":null,"SEMIMAJOR_AXIS":"6925.319","INCLINATION":"53.0542","EPOCH":"2022-10-19T22:16:29.020224","ECCENTRICITY":"0.00015740","EPHEMERIS_TYPE":"0"},{"REV_AT_EPOCH":"9373","DECAY_DATE":null,"SEMIMAJOR_AXIS":"6925.372","INCLINATION":"53.0530","EPOCH":"2022-10-19T01:39:46.917792","EPHEMERIS_TYPE":"0","ECCENTRICITY":"0.00013280","SITE":"AFETR","RCS_SIZE":"LARGE","TLE_LINE1":"1 47649U 21012AF  22292.06929303  .00002012  00000-0  15396-3 0  9997","RA_OF_ASC_NODE":"207.5265","MEAN_ELEMENT_THEORY":"SGP4","NORAD_CAT_ID":"47649","CLASSIFICATION_TYPE":"U","ARG_OF_PERICENTER":"89.2770","COUNTRY_CODE":"US","BSTAR":"0.00015396000000","GP_ID":"215580310","ELEMENT_SET_NO":"999","LAUNCH_DATE":"2021-02-16","REF_FRAME":"TEME","OBJECT_TYPE":"PAYLOAD","FILE":"3623062","CENTER_NAME":"EARTH","MEAN_MOTION":"15.06392228","TIME_SYSTEM":"UTC","APOAPSIS":"548.157","OBJECT_ID":"2021-012AF","OBJECT_NAME":"STARLINK-2032","MEAN_ANOMALY":"270.8371","MEAN_MOTION_DOT":"0.00002012","MEAN_MOTION_DDOT":"0.0000000000000","PERIAPSIS":"546.318","PERIOD":"95.593","TLE_LINE2":"2 47649  53.0530 207.5265 0001328  89.2770 270.8371 15.06392228 93730"}];
